FENGYUN 1C DEB          
1 33647U 99025DEG 17340.34461762  .00000300  00000-0  26180-3 0  9999
2 33647  98.1958 174.7912 0277659 178.7524 181.4383 13.75553605498443
